start=new Date('2021-11-21T00:00:00.000Z').valueOf();
sats=[{"EPHEMERIS_TYPE":"0","ARG_OF_PERICENTER":"78.6252","OBJECT_NAME":"STARLINK-1585","SEMIMAJOR_AXIS":"6925.387","MEAN_MOTION_DOT":"0.00000581","MEAN_MOTION":"15.06387417","GP_ID":"190145449","DECAY_DATE":null,"CLASSIFICATION_TYPE":"U","PERIOD":"95.593","BSTAR":"0.00005791300000","TLE_LINE1":"1 46117U 20057A   21324.71690835  .00000581  00000-0  57913-4 0  9997","SITE":"AFETR","MEAN_ELEMENT_THEORY":"SGP4","ELEMENT_SET_NO":"999","CENTER_NAME":"EARTH","APOAPSIS":"548.508","FILE":"3220110","INCLINATION":"53.0544","MEAN_MOTION_DDOT":"0.0000000000000","NORAD_CAT_ID":"46117","ECCENTRICITY":"0.00018140","TIME_SYSTEM":"UTC","RA_OF_ASC_NODE":"144.5118","RCS_SIZE":"LARGE","OBJECT_TYPE":"PAYLOAD","EPOCH":"2021-11-20T17:12:20.881440","TLE_LINE2":"2 46117  53.0544 144.5118 0001814  78.6252 281.4941 15.06387417 70378","LAUNCH_DATE":"2020-08-18","COUNTRY_CODE":"US","PERIAPSIS":"545.996","REF_FRAME":"TEME","MEAN_ANOMALY":"281.4941","REV_AT_EPOCH":"7037","OBJECT_ID":"2020-057A"},{"MEAN_ANOMALY":"282.7532","REF_FRAME":"TEME","REV_AT_EPOCH":"7068","OBJECT_ID":"2020-057B","EPOCH":"2021-11-20T12:38:59.006976","TLE_LINE2":"2 46118  53.0518 165.3607 0001726  77.3650 282.7532 15.06390936 70688","LAUNCH_DATE":"2020-08-18","PERIAPSIS":"546.046","COUNTRY_CODE":"US","RA_OF_ASC_NODE":"165.3607","RCS_SIZE":"LARGE","OBJECT_TYPE":"PAYLOAD","NORAD_CAT_ID":"46118","ECCENTRICITY":"0.00017260","TIME_SYSTEM":"UTC","FILE":"3220049","APOAPSIS":"548.437","ELEMENT_SET_NO":"999","CENTER_NAME":"EARTH","INCLINATION":"53.0518","MEAN_MOTION_DDOT":"0.0000000000000","BSTAR":"-0.00005543400000","SITE":"AFETR","TLE_LINE1":"1 46118U 20057B   21324.52707184 -.00001107  00000-0 -55434-4 0  9996","MEAN_ELEMENT_THEORY":"SGP4","GP_ID":"190140699","DECAY_DATE":null,"CLASSIFICATION_TYPE":"U","PERIOD":"95.593","EPHEMERIS_TYPE":"0","OBJECT_NAME":"STARLINK-1588","ARG_OF_PERICENTER":"77.3650","MEAN_MOTION_DOT":"-0.00001107","SEMIMAJOR_AXIS":"6925.376","MEAN_MOTION":"15.06390936"},{"MEAN_MOTION_DDOT":"0.0000000000000","FILE":"3220067","APOAPSIS":"548.496","CENTER_NAME":"EARTH","ELEMENT_SET_NO":"999","INCLINATION":"53.0542","MEAN_ELEMENT_THEORY":"SGP4","BSTAR":"0.00008371700000","SITE":"AFETR","TLE_LINE1":"1 46119U 20057C   21324.71505370  .00000965  00000-0  83717-4 0  9995","CLASSIFICATION_TYPE":"U","PERIOD":"95.593","GP_ID":"190144238","DECAY_DATE":null,"MEAN_MOTION_DOT":"0.00000965","SEMIMAJOR_AXIS":"6925.389","MEAN_MOTION":"15.06386729","EPHEMERIS_TYPE":"0","OBJECT_NAME":"STARLINK-1593","ARG_OF_PERICENTER":"77.3847","REV_AT_EPOCH":"7009","OBJECT_ID":"2020-057C","MEAN_ANOMALY":"282.7343","REF_FRAME":"TEME","LAUNCH_DATE":"2020-08-18","PERIAPSIS":"546.013","COUNTRY_CODE":"US","EPOCH":"2021-11-20T17:09:40.639680","TLE_LINE2":"2 46119  53.0542 164.5161 0001793  77.3847 282.7343 15.06386729 70094","OBJECT_TYPE":"PAYLOAD","RA_OF_ASC_NODE":"164.5161","RCS_SIZE":"LARGE","TIME_SYSTEM":"UTC","NORAD_CAT_ID":"46119","ECCENTRICITY":"0.00017930"},{"GP_ID":"190139698","DECAY_DATE":null,"CLASSIFICATION_TYPE":"U","PERIOD":"95.593","EPHEMERIS_TYPE":"0","ARG_OF_PERICENTER":"71.1329","OBJECT_NAME":"STARLINK-1601","SEMIMAJOR_AXIS":"6925.374","MEAN_MOTION_DOT":"-0.00000931","MEAN_MOTION":"15.06391818","CENTER_NAME":"EARTH","ELEMENT_SET_NO":"999","APOAPSIS":"548.647","FILE":"3220049","INCLINATION":"53.0538","MEAN_MOTION_DDOT":"0.0000000000000","BSTAR":"-0.00004361500000","TLE_LINE1":"1 46120U 20057D   21324.30222524 -.00000931  00000-0 -43615-4 0  9997","SITE":"AFETR","MEAN_ELEMENT_THEORY":"SGP4","RA_OF_ASC_NODE":"166.3651","RCS_SIZE":"LARGE","OBJECT_TYPE":"PAYLOAD","NORAD_CAT_ID":"46120","ECCENTRICITY":"0.00020340","TIME_SYSTEM":"UTC","REF_FRAME":"TEME","MEAN_ANOMALY":"288.9881","REV_AT_EPOCH":"7065","OBJECT_ID":"2020-057D","EPOCH":"2021-11-20T07:15:12.260736","TLE_LINE2":"2 46120  53.0538 166.3651 0002034  71.1329 288.9881 15.06391818 70653","LAUNCH_DATE":"2020-08-18","COUNTRY_CODE":"US","PERIAPSIS":"545.830"},{"OBJECT_ID":"2020-057E","REV_AT_EPOCH":"6967","REF_FRAME":"TEME","MEAN_ANOMALY":"292.1499","COUNTRY_CODE":"US","PERIAPSIS":"545.994","LAUNCH_DATE":"2020-08-18","TLE_LINE2":"2 46121  53.0539 145.6141 0001787  67.9680 292.1499 15.06394033 69670","EPOCH":"2021-11-20T11:16:43.861440","OBJECT_TYPE":"PAYLOAD","RCS_SIZE":"LARGE","RA_OF_ASC_NODE":"145.6141","TIME_SYSTEM":"UTC","ECCENTRICITY":"0.00017870","NORAD_CAT_ID":"46121","MEAN_MOTION_DDOT":"0.0000000000000","INCLINATION":"53.0539","ELEMENT_SET_NO":"999","CENTER_NAME":"EARTH","FILE":"3220049","APOAPSIS":"548.469","MEAN_ELEMENT_THEORY":"SGP4","TLE_LINE1":"1 46121U 20057E   21324.46995210  .00000604  00000-0  59452-4 0  9995","SITE":"AFETR","BSTAR":"0.00005945200000","PERIOD":"95.593","CLASSIFICATION_TYPE":"U","DECAY_DATE":null,"GP_ID":"190139948","MEAN_MOTION":"15.06394033","SEMIMAJOR_AXIS":"6925.367","MEAN_MOTION_DOT":"0.00000604","ARG_OF_PERICENTER":"67.9680","OBJECT_NAME":"STARLINK-1602","EPHEMERIS_TYPE":"0"},{"DECAY_DATE":null,"GP_ID":"190144290","PERIOD":"95.593","CLASSIFICATION_TYPE":"U","ARG_OF_PERICENTER":"79.6241","OBJECT_NAME":"STARLINK-1604","EPHEMERIS_TYPE":"0","MEAN_MOTION":"15.06392936","SEMIMAJOR_AXIS":"6925.370","MEAN_MOTION_DOT":"0.00000608","INCLINATION":"53.0530","ELEMENT_SET_NO":"999","CENTER_NAME":"EARTH","FILE":"3220071","APOAPSIS":"548.413","MEAN_MOTION_DDOT":"0.0000000000000","TLE_LINE1":"1 46122U 20057F   21324.74456091  .00000608  00000-0  59727-4 0  9995","SITE":"AFETR","BSTAR":"0.00005972700000","MEAN_ELEMENT_THEORY":"SGP4","RCS_SIZE":"LARGE","RA_OF_ASC_NODE":"124.3730","OBJECT_TYPE":"PAYLOAD","ECCENTRICITY":"0.00017000","NORAD_CAT_ID":"46122","TIME_SYSTEM":"UTC","REF_FRAME":"TEME","MEAN_ANOMALY":"280.4940","OBJECT_ID":"2020-057F","REV_AT_EPOCH":"7066","TLE_LINE2":"2 46122  53.0530 124.3730 0001700  79.6241 280.4940 15.06392936 70660","EPOCH":"2021-11-20T17:52:10.062624","COUNTRY_CODE":"US","PERIAPSIS":"546.058","LAUNCH_DATE":"2020-08-18"},{"REF_FRAME":"TEME","MEAN_ANOMALY":"278.0441","OBJECT_ID":"2020-057G","REV_AT_EPOCH":"7123","TLE_LINE2":"2 46123  53.0539 125.6346 0001680  82.0739 278.0441 15.06405851 71238","EPOCH":"2021-11-20T11:08:44.500416","COUNTRY_CODE":"US","PERIAPSIS":"546.032","LAUNCH_DATE":"2020-08-18","RCS_SIZE":"LARGE","RA_OF_ASC_NODE":"125.6346","OBJECT_TYPE":"PAYLOAD","ECCENTRICITY":"0.00016800","NORAD_CAT_ID":"46123","TIME_SYSTEM":"UTC","INCLINATION":"53.0539","ELEMENT_SET_NO":"999","CENTER_NAME":"EARTH","FILE":"3220049","APOAPSIS":"548.359","MEAN_MOTION_DDOT":"0.0000000000000","TLE_LINE1":"1 46123U 20057G   21324.46440394  .00000886  00000-0  78388-4 0  9996","SITE":"AFETR","BSTAR":"0.00007838800000","MEAN_ELEMENT_THEORY":"SGP4","DECAY_DATE":null,"GP_ID":"190140950","PERIOD":"95.592","CLASSIFICATION_TYPE":"U","ARG_OF_PERICENTER":"82.0739","OBJECT_NAME":"STARLINK-1605","EPHEMERIS_TYPE":"0","MEAN_MOTION":"15.06405851","SEMIMAJOR_AXIS":"6925.331","MEAN_MOTION_DOT":"0.00000886"},{"RA_OF_ASC_NODE":"124.4162","RCS_SIZE":"LARGE","OBJECT_TYPE":"PAYLOAD","NORAD_CAT_ID":"46124","ECCENTRICITY":"0.00017170","TIME_SYSTEM":"UTC","MEAN_ANOMALY":"283.6461","REF_FRAME":"TEME","REV_AT_EPOCH":"7066","OBJECT_ID":"2020-057H","EPOCH":"2021-11-20T17:41:32.789184","TLE_LINE2":"2 46124  53.0545 124.4162 0001717  76.4719 283.6461 15.06395428 70663","LAUNCH_DATE":"2020-08-18","PERIAPSIS":"546.038","COUNTRY_CODE":"US","GP_ID":"190144608","DECAY_DATE":null,"CLASSIFICATION_TYPE":"U","PERIOD":"95.592","EPHEMERIS_TYPE":"0","OBJECT_NAME":"STARLINK-1614","ARG_OF_PERICENTER":"76.4719","MEAN_MOTION_DOT":"0.00000900","SEMIMAJOR_AXIS":"6925.363","MEAN_MOTION":"15.06395428","FILE":"3220074","APOAPSIS":"548.417","ELEMENT_SET_NO":"999","CENTER_NAME":"EARTH","INCLINATION":"53.0545","MEAN_MOTION_DDOT":"0.0000000000000","BSTAR":"0.00007934300000","SITE":"AFETR","TLE_LINE1":"1 46124U 20057H   21324.73718506  .00000900  00000-0  79343-4 0  9999","MEAN_ELEMENT_THEORY":"SGP4"},{"TIME_SYSTEM":"UTC","ECCENTRICITY":"0.00021330","NORAD_CAT_ID":"46125","OBJECT_TYPE":"PAYLOAD","RCS_SIZE":"LARGE","RA_OF_ASC_NODE":"167.4650","PERIAPSIS":"545.756","COUNTRY_CODE":"US","LAUNCH_DATE":"2020-08-18","TLE_LINE2":"2 46125  53.0525 167.4650 0002133  81.2405 278.8825 15.06393679 70598","EPOCH":"2021-11-20T01:19:34.769856","OBJECT_ID":"2020-057J","REV_AT_EPOCH":"7059","MEAN_ANOMALY":"278.8825","REF_FRAME":"TEME","MEAN_MOTION":"15.06393679","MEAN_MOTION_DOT":"-0.00000288","SEMIMAJOR_AXIS":"6925.368","OBJECT_NAME":"STARLINK-1618","ARG_OF_PERICENTER":"81.2405","EPHEMERIS_TYPE":"0","PERIOD":"95.593","CLASSIFICATION_TYPE":"U","DECAY_DATE":null,"GP_ID":"190139449","MEAN_ELEMENT_THEORY":"SGP4","SITE":"AFETR","TLE_LINE1":"1 46125U 20057J   21324.05526354 -.00000288  00000-0 -41574-6 0  9991","BSTAR":"-0.00000041574000","MEAN_MOTION_DDOT":"0.0000000000000","INCLINATION":"53.0525","APOAPSIS":"548.710","FILE":"3220049","ELEMENT_SET_NO":"999","CENTER_NAME":"EARTH"},{"PERIAPSIS":"545.955","COUNTRY_CODE":"US","LAUNCH_DATE":"2020-08-18","TLE_LINE2":"2 46126  53.0779 166.2818 0001760  54.3367 305.7786 15.06412812 69377","EPOCH":"2021-11-20T07:04:37.239744","OBJECT_ID":"2020-057K","REV_AT_EPOCH":"6937","MEAN_ANOMALY":"305.7786","REF_FRAME":"TEME","TIME_SYSTEM":"UTC","ECCENTRICITY":"0.00017600","NORAD_CAT_ID":"46126","OBJECT_TYPE":"PAYLOAD","RCS_SIZE":"LARGE","RA_OF_ASC_NODE":"166.2818","MEAN_ELEMENT_THEORY":"SGP4","SITE":"AFETR","TLE_LINE1":"1 46126U 20057K   21324.29487546  .00005496  00000-0  38743-3 0  9992","BSTAR":"0.00038743000000","MEAN_MOTION_DDOT":"0.0000000000000","INCLINATION":"53.0779","FILE":"3220049","APOAPSIS":"548.393","ELEMENT_SET_NO":"999","CENTER_NAME":"EARTH","MEAN_MOTION":"15.06412812","MEAN_MOTION_DOT":"0.00005496","SEMIMAJOR_AXIS":"6925.309","OBJECT_NAME":"STARLINK-1619","ARG_OF_PERICENTER":"54.3367","EPHEMERIS_TYPE":"0","PERIOD":"95.591","CLASSIFICATION_TYPE":"U","DECAY_DATE":null,"GP_ID":"190140700"}];
